STARLINK-37223          
1 68387C 26063H   26099.84215278  .00104190  00000+0  54432-3 0   998
2 68387  97.2829 241.1141 0001374  98.6101 226.9864 15.80792313    12
STARLINK-37203          
1 68388C 26063J   26099.85118056  .00077804  00000+0  40628-3 0   999
2 68388  97.2829 241.1254 0001341  91.3411 289.8473 15.80817227    12
STARLINK-37197          
1 68389C 26063K   26099.87895833  .00031783  00000+0  21346-3 0   999
2 68389  97.2841 241.1506 0001065  99.4254  69.8305 15.75181689    14
STARLINK-37193          
1 68390C 26063L   26099.84770833 -.01819600  00000+0 -46346-2 0   991
2 68390  97.2746 241.3109 0001347  55.5826  22.1322 15.96331748    19
STARLINK-37216          
1 68391C 26063M   26099.86298611  .00066119  00000+0  34547-3 0   990
2 68391  97.2830 241.1440 0001443  98.0337   3.1320 15.80809623    18
STARLINK-37215          
1 68392C 26063N   26099.83243056  .00144590  00000+0  75558-3 0   998
2 68392  97.2829 241.1131 0001277 102.5520 189.1251 15.80766904    16
STARLINK-37184          
1 68393C 26063P   26099.86368056  .00184900  00000+0  96587-3 0   994
2 68393  97.2829 241.1480 0001365 102.8518  10.8080 15.80753959    18
STARLINK-37157          
1 68394C 26063Q   26099.82201389 -.02067300  00000+0 -11775-1 0   998
2 68394  97.2840 241.1047 0001852  93.9086 146.7920 15.79998270    19
STARLINK-37172          
1 68395C 26063R   26099.82687500  .00104730  00000+0  54730-3 0   997
2 68395  97.2831 241.1133 0001288 100.4438 176.7354 15.80785989    11
STARLINK-37190          
1 68396C 26063S   26099.85881944  .00163200  00000+0  85116-3 0   998
2 68396  97.2835 241.1450 0001557 113.2848 341.2287 15.80799584    14
STARLINK-37194          
1 68397C 26063T   26099.84979167  .00074077  00000+0  38701-3 0   994
2 68397  97.2831 241.1394 0001450  96.8901 314.8826 15.80807923    18
STARLINK-37220          
1 68398C 26063U   26099.86437500  .00066362  00000+0  34676-3 0   992
2 68398  97.2834 241.1589 0001385  99.6901  43.5710 15.80808359    18
STARLINK-37187          
1 68399C 26063V   26099.80881944  .00148200  00000+0  77480-3 0   994
2 68399  97.2830 241.0981 0001141 101.1430  81.9052 15.80755672    10
STARLINK-36235          
1 68400C 26063W   26099.80812500  .00135010  00000+0  70592-3 0   991
2 68400  97.2834 241.1004 0001233  89.2368  98.4161 15.80760164    18
STARLINK-37175          
1 68401C 26063X   26099.78451389  .00121530  00000+0  63534-3 0   993
2 68401  97.2833 241.0777 0001255  91.5790 326.0615 15.80769004    19
STARLINK-36360          
1 68402C 26063Y   26099.79562500  .00112390  00000+0  58760-3 0   992
2 68402  97.2835 241.0907 0001282  84.5561  40.5549 15.80772518    13
STARLINK-37218          
1 68403C 26063Z   26099.86715278  .00049740  00000+0  25990-3 0   990
2 68403  97.2833 241.1715 0001342  99.1092  81.3144 15.80817136    18
STARLINK-37188          
1 68404C 26063AA  26099.84215278  .00091106  00000+0  47609-3 0   998
2 68404  97.2834 241.1425 0001518 102.0216 291.9580 15.80793455    15
STARLINK-37262          
1 68508C 26068A   26099.84562500 -.00059900  00000+0 -30295-3 0   992
2 68508  53.1606 353.1905 0000979 114.3827 306.1439 15.80896799    16
STARLINK-36292          
1 68509C 26068B   26099.82826389  .00022550  00000+0  11391-3 0   994
2 68509  53.1606 353.2685 0001573  87.3087 238.5811 15.80881708    17
STARLINK-37260          
1 68510C 26068C   26099.83798611 -.00065615  00000+0 -33176-3 0   999
2 68510  53.1606 353.2108 0000785  97.5811 287.9922 15.80905580    17
STARLINK-37280          
1 68511C 26068D   26099.78451389  .00022934  00000+0  11598-3 0   991
2 68511  53.1607 353.4696 0000936  74.0499  11.3118 15.80858582    18
STARLINK-37286          
1 68512C 26068E   26099.84631944  .00018141  00000+0  91717-4 0   993
2 68512  53.1605 353.1515 0000478 124.1683 317.4095 15.80865957    15
STARLINK-36250          
1 68513C 26068F   26099.77965278 -.00007204  00000+0 -36415-4 0   990
2 68513  53.1607 353.4763 0000639  99.7092 326.5053 15.80881152    16
STARLINK-37251          
1 68514C 26068G   26099.84284722 -.00021460  00000+0 -10848-3 0   998
2 68514  53.1607 353.1512 0000623 121.0082 309.3404 15.80887820    14
STARLINK-36293          
1 68515C 26068H   26099.83590278 -.00232610  00000+0 -11748-2 0   994
2 68515  53.1607 353.1773 0001109 105.0406 289.9747 15.81013052    18
STARLINK-36290          
1 68516C 26068J   26099.81854167 -.00585890  00000+0 -29522-2 0   993
2 68516  53.1607 353.2556 0000786  96.0089 204.2954 15.81240449    17
STARLINK-36298          
1 68517C 26068K   26099.85604167 -.00679810  00000+0 -34231-2 0   990
2 68517  53.1605 353.0591 0000721  45.1012 112.9875 15.81302810    11
STARLINK-36857          
1 68518C 26068L   26099.83729167 -.01689100  00000+0 -84172-2 0   990
2 68518  53.1605 353.1362 0000711  73.3670 346.0208 15.82035391    19
STARLINK-36326          
1 68519C 26068M   26099.85048611 -.00994490  00000+0 -49939-2 0   993
2 68519  53.1604 353.0783 0000689 144.1486 346.4579 15.81520303    17
STARLINK-37126          
1 68520C 26068N   26099.83451389 -.01828800  00000+0 -90622-2 0   990
2 68520  53.1605 353.1419 0000541 112.9136 294.7481 15.82227713    16
STARLINK-36347          
1 68521C 26068P   26099.86020833 -.01893100  00000+0 -93598-2 0   990
2 68521  53.1604 353.0044 0001072  80.8182 117.3573 15.82308594    12
STARLINK-36322          
1 68522C 26068Q   26099.81576389 -.02105100  00000+0 -10251-1 0   999
2 68522  53.1604 353.2193 0000488 105.3521 203.4808 15.82743224    11
STARLINK-37208          
1 68523C 26068R   26099.78381944 -.02303500  00000+0 -11071-1 0   992
2 68523  53.1605 353.3713 0000670 106.5432  24.1759 15.83125716    13
STARLINK-36302          
1 68524C 26068S   26099.88381944 -.02131000  00000+0 -10375-1 0   994
2 68524  53.1602 352.8612 0000666 104.1786 240.7286 15.82761311    11
STARLINK-36311          
1 68525C 26068T   26099.86715278 -.02176000  00000+0 -10427-1 0   991
2 68525  53.1602 352.9282 0000825 101.8828 156.0590 15.83125000    11
STARLINK-37178          
1 68526C 26068U   26099.83937500 -.02157800  00000+0 -10333-1 0   996
2 68526  53.1604 353.0759 0000652  95.9559 359.5076 15.83129334    10
STARLINK-37248          
1 68527C 26068V   26099.88868056 -.02194300  00000+0 -10503-1 0   996
2 68527  53.1602 352.8117 0000602  94.0110 290.7444 15.83157667    17
STARLINK-37241          
1 68528C 26068W   26099.84076389 -.02175300  00000+0 -10147-1 0   996
2 68528  53.1602 353.0366 0000937  95.8671  23.4016 15.83700435    12
STARLINK-37244          
1 68529C 26068X   26099.85465278 -.02178200  00000+0 -10262-1 0   997
2 68529  53.1603 352.9748 0000888  90.7538 103.8135 15.83488980    10
STARLINK-36285          
1 68530C 26068Y   26099.82618056 -.02175400  00000+0 -10065-1 0   990
2 68530  53.1603 353.1017 0000780  97.6217 302.4519 15.83873790    15
STARLINK-36294          
1 68531C 26068Z   26099.86506944 -.02194100  00000+0 -10132-1 0   990
2 68531  53.1603 352.8985 0001000 111.4719 154.2141 15.83923949    10
STARLINK-36249          
1 68532C 26068AA  26099.87479167 -.02210900  00000+0 -10092-1 0   990
2 68532  53.1600 352.8333 0000550  86.8070 242.1260 15.84178671    13
STARLINK-36252          
1 68533C 26068AB  26099.87965278 -.02206500  00000+0 -10150-1 0   990
2 68533  53.1604 352.8171 0000570 104.8539 247.9272 15.84013090    10
STARLINK-36299          
1 68534C 26068AC  26099.80118056 -.02145300  00000+0 -95738-2 0   994
2 68534  53.1603 353.1961 0001000 109.8804 162.7435 15.84622306    11
STARLINK-37234          
1 68535C 26068AD  26099.81784722 -.02189400  00000+0 -97061-2 0   995
2 68535  53.1603 353.0956 0000662  89.5958 286.0458 15.84784469    16
STARLINK-37173          
1 68536C 26068AE  26099.81576389 -.02180100  00000+0 -97136-2 0   995
2 68536  53.1602 353.1144 0000632  92.6733 267.1692 15.84674334    18
STARLINK-37326          
1 68542C 26070A   26099.81923611 -.00883580  00000+0 -18219-2 0   994
2 68542  53.1593 228.9253 0000826  63.5736 144.5339 15.98962250    17
STARLINK-36308          
1 68543C 26070B   26099.87340278 -.00934030  00000+0 -19263-2 0   990
2 68543  53.1589 228.6423 0000831  61.2868 100.5186 15.98984176    19
STARLINK-37263          
1 68544C 26070C   26099.84840278 -.00921790  00000+0 -18760-2 0   993
2 68544  53.1588 228.7647 0000826  54.9706 326.1916 15.99213788    14
STARLINK-37289          
1 68545C 26070D   26099.81090278 -.00892520  00000+0 -18209-2 0   994
2 68545  53.1587 228.9620 0000870  59.8823 103.2158 15.99155584    11
STARLINK-37290          
1 68546C 26070E   26099.85812500 -.00932770  00000+0 -18879-2 0   994
2 68546  53.1591 228.7097 0000908  52.2315  27.0582 15.99316875    14
STARLINK-37245          
1 68547C 26070F   26099.81298611 -.00889830  00000+0 -17707-2 0   999
2 68547  53.1592 228.9344 0000975  57.8768 125.2885 15.99594848    15
STARLINK-37145          
1 68548C 26070G   26099.87687500 -.00931280  00000+0 -18784-2 0   998
2 68548  53.1588 228.6099 0000909  56.0625 132.9563 15.99377575    19
STARLINK-36204          
1 68549C 26070H   26099.79493056 -.00893520  00000+0 -17634-2 0   998
2 68549  53.1593 229.0233 0000756  59.3155  21.8360 15.99743194    10
STARLINK-36304          
1 68550C 26070J   26099.77409722 -.00909320  00000+0 -17670-2 0   991
2 68550  53.1593 229.1217 0000767  61.8563 263.4296 16.00023495    18
STARLINK-37288          
1 68551C 26070K   26099.81090278 -.00889930  00000+0 -17263-2 0   991
2 68551  53.1591 228.9284 0000868  58.3648 120.8023 16.00044221    19
STARLINK-37295          
1 68552C 26070L   26099.83729167 -.00919810  00000+0 -18102-2 0   994
2 68552  53.1588 228.8002 0000732  54.8260 272.7467 15.99805291    12
STARLINK-37254          
1 68553C 26070M   26099.79354167 -.00888540  00000+0 -16952-2 0   990
2 68553  53.1590 229.0082 0000775  60.5032  23.2578 16.00334136    15
